STARLINK-33779          
1 63880U 25094S   26181.46668790  .00001595  00000+0  14139-3 0  9999
2 63880  70.0028 310.2070 0003116 265.8773  94.2030 14.98333571 64097
STARLINK-33905          
1 63881U 25094T   26181.49170879  .00002067  00000+0  18099-3 0  9993
2 63881  70.0025 309.8913 0002977 268.4121  91.6697 14.98333136 64104
STARLINK-34003          
1 63882U 25094U   26181.58334491  .00063094  00000+0  13384-2 0  9994
2 63882  69.9999 260.4408 0003701 276.4018 132.2356 15.44727196  5691
STARLINK-33968          
1 63883U 25094V   26181.47937179  .00003852  00000+0  33042-3 0  9995
2 63883  70.0029 310.2456 0003073 275.8360  84.2449 14.98329723 64091
STARLINK-33943          
1 63884U 25094W   26181.48753103  .00003486  00000+0  29971-3 0  9999
2 63884  70.0026 309.8764 0003526 264.5212  95.5545 14.98336869 64102
STARLINK-33858          
1 63885U 25094X   26181.11201893  .00004851  00000+0  41396-3 0  9996
2 63885  70.0025 310.9708 0003189 269.1359  90.9434 14.98342291 64046
STARLINK-33885          
1 63886U 25094Y   26181.49587867  .00003052  00000+0  26341-3 0  9991
2 63886  70.0024 309.9019 0003247 268.9612  91.1175 14.98336095 64100
STARLINK-33904          
1 63887U 25094Z   26181.49187203  .00003329  00000+0  28659-3 0  9993
2 63887  70.0024 309.8869 0002377 270.5862  89.5024 14.98338407 64105
STARLINK-33981          
1 63888U 25094AA  26181.46268573  .00006335  00000+0  53813-3 0  9991
2 63888  70.0024 310.1867 0003292 270.2597  89.8185 14.98338387 64094
STARLINK-33738          
1 63889U 25094AB  26181.45015304  .00003425  00000+0  29460-3 0  9991
2 63889  70.0026 310.1188 0003130 269.9124  90.1676 14.98339545 64317
STARLINK-34116          
1 63890U 25095A   26180.94337008  .00012314  00000+0  45623-3 0  9991
2 63890  43.0028 262.4377 0000867 283.6488  76.4267 15.27582909 64950
STARLINK-34123          
1 63891U 25095B   26181.28443869  .00015925  00000+0  58678-3 0  9998
2 63891  42.9994 260.7021 0000660 261.0721  99.0056 15.27589565 65008
STARLINK-33972          
1 63893U 25095D   26181.58334491  .00035941  00000+0  13106-2 0  9999
2 63893  43.0007 258.7224 0001230 271.4500  54.6245 15.27546051  5861
STARLINK-33973          
1 63894U 25095E   26180.70351770  .00025951  00000+0  94927-3 0  9993
2 63894  42.9969 263.2157 0001350 258.6072 101.4628 15.27578902 64925
STARLINK-34119          
1 63895U 25095F   26180.68824322  .00018755  00000+0  68892-3 0  9995
2 63895  43.0013 263.9657 0002351 266.7012  93.3571 15.27598275 64916
STARLINK-34143          
1 63896U 25095G   26181.57796781  .00019183  00000+0  70454-3 0  9995
2 63896  42.9984 258.5962 0000905 294.4760  65.5998 15.27591999 65058
STARLINK-33957          
1 63897U 25095H   26181.54214505  .00019363  00000+0  71077-3 0  9994
2 63897  43.0008 259.1945 0001817 281.3295  78.7352 15.27604991 65032
STARLINK-34120          
1 63898U 25095J   26181.54969540  .00015980  00000+0  58880-3 0  9999
2 63898  43.0004 258.3826 0001306 302.8130  57.2596 15.27589378 65053
STARLINK-34134          
1 63899U 25095K   26180.93951220  .00013233  00000+0  48934-3 0  9996
2 63899  43.0013 262.4062 0000856 296.8810  63.1954 15.27593015 64953
STARLINK-34118          
1 63900U 25095L   26180.94594215  .00005788  00000+0  21967-3 0  9990
2 63900  42.9979 262.4577 0000726 294.7533  65.3243 15.27584355 64953
STARLINK-34125          
1 63901U 25095M   26180.93179768  .00019667  00000+0  72207-3 0  9996
2 63901  43.0010 262.3466 0002630 266.1453  93.9098 15.27589101 64946
STARLINK-33955          
1 63902U 25095N   26181.55611241  .00013863  00000+0  51222-3 0  9999
2 63902  43.0012 258.4291 0001812 263.9554  96.1091 15.27587286 65041
STARLINK-34097          
1 63903U 25095P   26181.57539886  .00023002  00000+0  84279-3 0  9990
2 63903  42.9989 258.5746 0000846  40.3739 319.7175 15.27580766 65040
STARLINK-34092          
1 63904U 25095Q   26181.53955898  .00015602  00000+0  57518-3 0  9995
2 63904  42.9985 259.1743 0001820 268.5843  91.4800 15.27584532 65037
STARLINK-34114          
1 63905U 25095R   26181.54726877  .00019400  00000+0  71242-3 0  9990
2 63905  43.0013 259.2330 0001654 279.0453  81.0212 15.27590071 65031
STARLINK-33770          
1 63906U 25095S   26181.56510873  .00013251  00000+0  49026-3 0  9993
2 63906  42.9969 258.5012 0001859 266.7343  93.3296 15.27575516 65043
STARLINK-34106          
1 63907U 25095T   26181.29970939  .00022735  00000+0  83296-3 0  9991
2 63907  42.9986 259.9401 0001147 271.9355  88.1365 15.27586924 65001
STARLINK-34083          
1 63908U 25095U   26181.54340957  .00007611  00000+0  28573-3 0  9994
2 63908  43.0059 259.1972 0001671 267.0876  92.9784 15.27589753 65030
STARLINK-34066          
1 63909U 25095V   26180.94079079  .00004775  00000+0  18294-3 0  9999
2 63909  43.0019 262.4132 0001475 270.1944  89.8739 15.27580455 64949
STARLINK-34071          
1 63910U 25095W   26180.94721402 -.00002080  00000+0 -66074-4 0  9994
2 63910  42.9998 262.4652 0001335 280.8024  79.2678 15.27587396 64940
