OBJECT_NAME,OBJECT_ID,EPOCH,MEAN_MOTION,ECCENTRICITY,INCLINATION,RA_OF_ASC_NODE,ARG_OF_PERICENTER,MEAN_ANOMALY,EPHEMERIS_TYPE,CLASSIFICATION_TYPE,NORAD_CAT_ID,ELEMENT_SET_NO,REV_AT_EPOCH,BSTAR,MEAN_MOTION_DOT,MEAN_MOTION_DDOT
STARLINK-33779,2025-094S,2026-06-30T11:12:01.834560,14.98333571,.00031168,70.0028,310.2070,265.8773,94.2030,0,U,63880,999,6409,.14138848E-3,.1595E-4,0
STARLINK-33905,2025-094T,2026-06-30T11:48:03.639456,14.98333136,.00029775,70.0025,309.8913,268.4121,91.6697,0,U,63881,999,6410,.18099339E-3,.2067E-4,0
STARLINK-34003,2025-094U,2026-06-30T14:00:01.000224,15.44727196,.00037014,69.9999,260.4408,276.4018,132.2356,0,U,63882,999,569,.13384142E-2,.63094E-3,0
STARLINK-33968,2025-094V,2026-06-30T11:30:17.722656,14.98329723,.00030731,70.0029,310.2456,275.8360,84.2449,0,U,63883,999,6409,.33042133E-3,.3852E-4,0
STARLINK-33943,2025-094W,2026-06-30T11:42:02.680992,14.98336869,.00035262,70.0026,309.8764,264.5212,95.5545,0,U,63884,999,6410,.29970583E-3,.3486E-4,0
STARLINK-33858,2025-094X,2026-06-30T02:41:18.435552,14.98342291,.00031892,70.0025,310.9708,269.1359,90.9434,0,U,63885,999,6404,.41395716E-3,.4851E-4,0
STARLINK-33885,2025-094Y,2026-06-30T11:54:03.917088,14.98336095,.00032479,70.0024,309.9019,268.9612,91.1175,0,U,63886,999,6410,.26340622E-3,.3052E-4,0
STARLINK-33904,2025-094Z,2026-06-30T11:48:17.743392,14.98338407,.0002377,70.0024,309.8869,270.5862,89.5024,0,U,63887,999,6410,.28659258E-3,.3329E-4,0
STARLINK-33981,2025-094AA,2026-06-30T11:06:16.047072,14.98338387,.00032926,70.0024,310.1867,270.2597,89.8185,0,U,63888,999,6409,.53812542E-3,.6335E-4,0
STARLINK-33738,2025-094AB,2026-06-30T10:48:13.222656,14.98339545,.00031301,70.0026,310.1188,269.9124,90.1676,0,U,63889,999,6431,.29460401E-3,.3425E-4,0
STARLINK-34116,2025-095A,2026-06-29T22:38:27.174912,15.27582909,.0000867,43.0028,262.4377,283.6488,76.4267,0,U,63890,999,6495,.4562324E-3,.12314E-3,0
STARLINK-34123,2025-095B,2026-06-30T06:49:35.502816,15.27589565,.00006603,42.9994,260.7021,261.0721,99.0056,0,U,63891,999,6500,.58678246E-3,.15925E-3,0
STARLINK-33972,2025-095D,2026-06-30T14:00:01.000224,15.27546051,.00012309,43.0007,258.7224,271.4500,54.6245,0,U,63893,999,586,.13105781E-2,.35941E-3,0
STARLINK-33973,2025-095E,2026-06-29T16:53:03.929280,15.27578902,.00013503,42.9969,263.2157,258.6072,101.4628,0,U,63894,999,6492,.94926976E-3,.25951E-3,0
STARLINK-34119,2025-095F,2026-06-29T16:31:04.214208,15.27598275,.00023514,43.0013,263.9657,266.7012,93.3571,0,U,63895,999,6491,.68892449E-3,.18755E-3,0
STARLINK-34143,2025-095G,2026-06-30T13:52:16.418784,15.27591999,.00009052,42.9984,258.5962,294.4760,65.5998,0,U,63896,999,6505,.70454363E-3,.19183E-3,0
STARLINK-33957,2025-095H,2026-06-30T13:00:41.332320,15.27604991,.00018179,43.0008,259.1945,281.3295,78.7352,0,U,63897,999,6503,.71076903E-3,.19363E-3,0
STARLINK-34120,2025-095J,2026-06-30T13:11:33.682560,15.27589378,.00013061,43.0004,258.3826,302.8130,57.2596,0,U,63898,999,6505,.58880448E-3,.1598E-3,0
STARLINK-34134,2025-095K,2026-06-29T22:32:53.854080,15.27593015,.00008563,43.0013,262.4062,296.8810,63.1954,0,U,63899,999,6495,.48934367E-3,.13233E-3,0
STARLINK-34118,2025-095L,2026-06-29T22:42:09.401760,15.27584355,.00007264,42.9979,262.4577,294.7533,65.3243,0,U,63900,999,6495,.21966552E-3,.5788E-4,0
STARLINK-34125,2025-095M,2026-06-29T22:21:47.319552,15.27589101,.00026306,43.0010,262.3466,266.1453,93.9098,0,U,63901,999,6494,.72207118E-3,.19667E-3,0
STARLINK-33955,2025-095N,2026-06-30T13:20:48.112224,15.27587286,.00018123,43.0012,258.4291,263.9554,96.1091,0,U,63902,999,6504,.51221905E-3,.13863E-3,0
STARLINK-34097,2025-095P,2026-06-30T13:48:34.461504,15.27580766,.0000846,42.9989,258.5746,40.3739,319.7175,0,U,63903,999,6504,.8427879E-3,.23002E-3,0
STARLINK-34092,2025-095Q,2026-06-30T12:56:57.895872,15.27584532,.00018205,42.9985,259.1743,268.5843,91.4800,0,U,63904,999,6503,.57518271E-3,.15602E-3,0
STARLINK-34114,2025-095R,2026-06-30T13:08:04.021728,15.27590071,.00016545,43.0013,259.2330,279.0453,81.0212,0,U,63905,999,6503,.7124204E-3,.194E-3,0
STARLINK-33770,2025-095S,2026-06-30T13:33:45.394272,15.27575516,.00018592,42.9969,258.5012,266.7343,93.3296,0,U,63906,999,6504,.49025811E-3,.13251E-3,0
STARLINK-34106,2025-095T,2026-06-30T07:11:34.891296,15.27586924,.00011474,42.9986,259.9401,271.9355,88.1365,0,U,63907,999,6500,.8329614E-3,.22735E-3,0
STARLINK-34083,2025-095U,2026-06-30T13:02:30.586848,15.27589753,.00016713,43.0059,259.1972,267.0876,92.9784,0,U,63908,999,6503,.28572886E-3,.7611E-4,0
STARLINK-34066,2025-095V,2026-06-29T22:34:44.324256,15.27580455,.00014753,43.0019,262.4132,270.1944,89.8739,0,U,63909,999,6494,.18293747E-3,.4775E-4,0
STARLINK-34071,2025-095W,2026-06-29T22:43:59.291328,15.27587396,.00013355,42.9998,262.4652,280.8024,79.2678,0,U,63910,999,6494,-.66074379E-4,-.208E-4,0
